GAOFEN-1                
1 39150U 13018A   26193.88250403 -.00000066  00000+0 -22358-5 0  9990
2 39150  97.9092 265.4266 0016876 178.5323 181.5940 14.76515540712033
FENGYUN 4A              
1 41882U 16077A   26193.87264568 -.00000360  00000+0  00000+0 0  9999
2 41882   2.3842  79.9926 0008495 159.3753 129.3116  1.00269406 35183
FORMOSAT-5              
1 42920U 17049A   26193.77612529  .00000036  00000+0  20303-4 0  9998
2 42920  98.2247 268.5166 0011496  11.2162 348.9287 14.50907418470381
FENGYUN 3D              
1 43010U 17072A   26193.87061108 -.00000289  00000+0 -11482-3 0  9996
2 43010  99.0135 168.7585 0001676  20.1244 339.9997 14.19743250448630
GAOFEN-1 02             
1 43259U 18031A   26193.84816569 -.00000214  00000+0 -23346-4 0  9994
2 43259  98.0522 256.3015 0001600 301.6056  58.4997 14.76467881446481
GAOFEN-1 03             
1 43260U 18031B   26193.82624828  .00000354  00000+0  58301-4 0  9991
2 43260  98.0505 256.1355 0002598  22.2830 337.8492 14.76460668446471
FENGYUN 3E              
1 49008U 21062A   26193.85164032 -.00000019  00000+0  11974-4 0  9998
2 49008  98.7499 196.9734 0002341  43.9598 316.1764 14.19905909260223
FENGYUN 3G              
1 56232U 23055A   26193.51877659  .00014070  00000+0  22220-3 0  9994
2 56232  49.9907 215.3889 0007145  43.6314 316.5217 15.53706483183944
FENGYUN 3F              
1 57490U 23111A   26193.83494038 -.00000006  00000+0  17516-4 0  9993
2 57490  98.6826 263.3645 0001317  77.4405 282.6918 14.19943150152500
FENGYUN 3H              
1 65815U 25219A   26193.76118778 -.00000010  00000+0  15599-4 0  9994
2 65815  98.6771 134.0337 0001201  62.8991 297.2308 14.19924541 41012
