{
 "generated_at": "2026-07-13T08:17:10Z",
 "sources": [
  {
   "name": "CelesTrak",
   "url": "https://celestrak.org/NORAD/elements/",
   "license": "frei verfügbar; Attribution. Ursprünglich USSPACECOM/Space-Track."
  },
  {
   "name": "GCAT (J. McDowell, planet4589.org)",
   "url": "https://planet4589.org/space/gcat/",
   "license": "CC-BY 4.0"
  }
 ],
 "satellites": [
  {
   "norad": 43010,
   "name": "FENGYUN 3D",
   "intl": "2017-072A",
   "group": "weather",
   "gcat": {
    "class": "C",
    "category": "MET",
    "owner": "NSMC",
    "state": "CN"
   },
   "omm": {
    "OBJECT_NAME": "FENGYUN 3D",
    "OBJECT_ID": "2017-072A",
    "EPOCH": "2026-07-12T20:53:40.797312",
    "MEAN_MOTION": 14.1974325,
    "ECCENTRICITY": 0.0001676,
    "INCLINATION": 99.0135,
    "RA_OF_ASC_NODE": 168.7585,
    "ARG_OF_PERICENTER": 20.1244,
    "MEAN_ANOMALY": 339.9997,
    "EPHEMERIS_TYPE": 0,
    "CLASSIFICATION_TYPE": "U",
    "NORAD_CAT_ID": 43010,
    "ELEMENT_SET_NO": 999,
    "REV_AT_EPOCH": 44863,
    "BSTAR": -0.00011482,
    "MEAN_MOTION_DOT": -0.00000289,
    "MEAN_MOTION_DDOT": 0
   }
  },
  {
   "norad": 49008,
   "name": "FENGYUN 3E",
   "intl": "2021-062A",
   "group": "weather",
   "gcat": {
    "class": "C",
    "category": "MET",
    "owner": "NSMC",
    "state": "CN"
   },
   "omm": {
    "OBJECT_NAME": "FENGYUN 3E",
    "OBJECT_ID": "2021-062A",
    "EPOCH": "2026-07-12T20:26:21.723648",
    "MEAN_MOTION": 14.19905909,
    "ECCENTRICITY": 0.0002341,
    "INCLINATION": 98.7499,
    "RA_OF_ASC_NODE": 196.9734,
    "ARG_OF_PERICENTER": 43.9598,
    "MEAN_ANOMALY": 316.1764,
    "EPHEMERIS_TYPE": 0,
    "CLASSIFICATION_TYPE": "U",
    "NORAD_CAT_ID": 49008,
    "ELEMENT_SET_NO": 999,
    "REV_AT_EPOCH": 26022,
    "BSTAR": 0.000011974,
    "MEAN_MOTION_DOT": -1.9e-7,
    "MEAN_MOTION_DDOT": 0
   }
  },
  {
   "norad": 57490,
   "name": "FENGYUN 3F",
   "intl": "2023-111A",
   "group": "weather",
   "gcat": {
    "class": "C",
    "category": "MET",
    "owner": "NSMC",
    "state": "CN"
   },
   "omm": {
    "OBJECT_NAME": "FENGYUN 3F",
    "OBJECT_ID": "2023-111A",
    "EPOCH": "2026-07-12T20:02:18.848832",
    "MEAN_MOTION": 14.1994315,
    "ECCENTRICITY": 0.0001317,
    "INCLINATION": 98.6826,
    "RA_OF_ASC_NODE": 263.3645,
    "ARG_OF_PERICENTER": 77.4405,
    "MEAN_ANOMALY": 282.6918,
    "EPHEMERIS_TYPE": 0,
    "CLASSIFICATION_TYPE": "U",
    "NORAD_CAT_ID": 57490,
    "ELEMENT_SET_NO": 999,
    "REV_AT_EPOCH": 15250,
    "BSTAR": 0.000017516,
    "MEAN_MOTION_DOT": -6e-8,
    "MEAN_MOTION_DDOT": 0
   }
  },
  {
   "norad": 56232,
   "name": "FENGYUN 3G",
   "intl": "2023-055A",
   "group": "weather",
   "gcat": {
    "class": "C",
    "category": "MET",
    "owner": "NSMC",
    "state": "CN"
   },
   "omm": {
    "OBJECT_NAME": "FENGYUN 3G",
    "OBJECT_ID": "2023-055A",
    "EPOCH": "2026-07-12T12:27:02.297376",
    "MEAN_MOTION": 15.53706483,
    "ECCENTRICITY": 0.00071454,
    "INCLINATION": 49.9907,
    "RA_OF_ASC_NODE": 215.3889,
    "ARG_OF_PERICENTER": 43.6314,
    "MEAN_ANOMALY": 316.5217,
    "EPHEMERIS_TYPE": 0,
    "CLASSIFICATION_TYPE": "U",
    "NORAD_CAT_ID": 56232,
    "ELEMENT_SET_NO": 999,
    "REV_AT_EPOCH": 18394,
    "BSTAR": 0.00022219972,
    "MEAN_MOTION_DOT": 0.0001407,
    "MEAN_MOTION_DDOT": 0
   }
  },
  {
   "norad": 65815,
   "name": "FENGYUN 3H",
   "intl": "2025-219A",
   "group": "weather",
   "gcat": {
    "class": "C",
    "category": "MET",
    "owner": "NSMC",
    "state": "CN"
   },
   "omm": {
    "OBJECT_NAME": "FENGYUN 3H",
    "OBJECT_ID": "2025-219A",
    "EPOCH": "2026-07-12T18:16:06.624192",
    "MEAN_MOTION": 14.19924541,
    "ECCENTRICITY": 0.0001201,
    "INCLINATION": 98.6771,
    "RA_OF_ASC_NODE": 134.0337,
    "ARG_OF_PERICENTER": 62.8991,
    "MEAN_ANOMALY": 297.2308,
    "EPHEMERIS_TYPE": 0,
    "CLASSIFICATION_TYPE": "U",
    "NORAD_CAT_ID": 65815,
    "ELEMENT_SET_NO": 999,
    "REV_AT_EPOCH": 4101,
    "BSTAR": 0.000015599,
    "MEAN_MOTION_DOT": -1e-7,
    "MEAN_MOTION_DDOT": 0
   }
  },
  {
   "norad": 41882,
   "name": "FENGYUN 4A",
   "intl": "2016-077A",
   "group": "weather",
   "gcat": {
    "class": "C",
    "category": "MET",
    "owner": "NSMC",
    "state": "CN"
   },
   "omm": {
    "OBJECT_NAME": "FENGYUN 4A",
    "OBJECT_ID": "2016-077A",
    "EPOCH": "2026-07-12T20:56:36.586752",
    "MEAN_MOTION": 1.00269406,
    "ECCENTRICITY": 0.0008495,
    "INCLINATION": 2.3842,
    "RA_OF_ASC_NODE": 79.9926,
    "ARG_OF_PERICENTER": 159.3753,
    "MEAN_ANOMALY": 129.3116,
    "EPHEMERIS_TYPE": 0,
    "CLASSIFICATION_TYPE": "U",
    "NORAD_CAT_ID": 41882,
    "ELEMENT_SET_NO": 999,
    "REV_AT_EPOCH": 3518,
    "BSTAR": 0,
    "MEAN_MOTION_DOT": -0.0000036,
    "MEAN_MOTION_DDOT": 0
   }
  },
  {
   "norad": 42920,
   "name": "FORMOSAT-5",
   "intl": "2017-049A",
   "group": "resource",
   "gcat": {
    "class": "C",
    "category": "IMG/SCI",
    "owner": "NSPO",
    "state": "TW"
   },
   "omm": {
    "OBJECT_NAME": "FORMOSAT-5",
    "OBJECT_ID": "2017-049A",
    "EPOCH": "2026-07-12T18:37:37.225056",
    "MEAN_MOTION": 14.50907418,
    "ECCENTRICITY": 0.0011496,
    "INCLINATION": 98.2247,
    "RA_OF_ASC_NODE": 268.5166,
    "ARG_OF_PERICENTER": 11.2162,
    "MEAN_ANOMALY": 348.9287,
    "EPHEMERIS_TYPE": 0,
    "CLASSIFICATION_TYPE": "U",
    "NORAD_CAT_ID": 42920,
    "ELEMENT_SET_NO": 999,
    "REV_AT_EPOCH": 47038,
    "BSTAR": 0.000020303,
    "MEAN_MOTION_DOT": 3.6e-7,
    "MEAN_MOTION_DDOT": 0
   }
  },
  {
   "norad": 39150,
   "name": "GAOFEN-1",
   "intl": "2013-018A",
   "group": "resource",
   "gcat": {
    "class": "C",
    "category": "IMG",
    "owner": "CNSAS",
    "state": "CN"
   },
   "omm": {
    "OBJECT_NAME": "GAOFEN-1",
    "OBJECT_ID": "2013-018A",
    "EPOCH": "2026-07-12T21:10:48.348192",
    "MEAN_MOTION": 14.7651554,
    "ECCENTRICITY": 0.0016876,
    "INCLINATION": 97.9092,
    "RA_OF_ASC_NODE": 265.4266,
    "ARG_OF_PERICENTER": 178.5323,
    "MEAN_ANOMALY": 181.594,
    "EPHEMERIS_TYPE": 0,
    "CLASSIFICATION_TYPE": "U",
    "NORAD_CAT_ID": 39150,
    "ELEMENT_SET_NO": 999,
    "REV_AT_EPOCH": 71203,
    "BSTAR": -0.0000022358,
    "MEAN_MOTION_DOT": -6.6e-7,
    "MEAN_MOTION_DDOT": 0
   }
  },
  {
   "norad": 43259,
   "name": "GAOFEN-1 02",
   "intl": "2018-031A",
   "group": "resource",
   "gcat": {
    "class": "C",
    "category": "IMG",
    "owner": "CNSAS",
    "state": "CN"
   },
   "omm": {
    "OBJECT_NAME": "GAOFEN-1 02",
    "OBJECT_ID": "2018-031A",
    "EPOCH": "2026-07-12T20:21:21.515616",
    "MEAN_MOTION": 14.76467881,
    "ECCENTRICITY": 0.00016,
    "INCLINATION": 98.0522,
    "RA_OF_ASC_NODE": 256.3015,
    "ARG_OF_PERICENTER": 301.6056,
    "MEAN_ANOMALY": 58.4997,
    "EPHEMERIS_TYPE": 0,
    "CLASSIFICATION_TYPE": "U",
    "NORAD_CAT_ID": 43259,
    "ELEMENT_SET_NO": 999,
    "REV_AT_EPOCH": 44648,
    "BSTAR": -0.000023346,
    "MEAN_MOTION_DOT": -0.00000214,
    "MEAN_MOTION_DDOT": 0
   }
  },
  {
   "norad": 43260,
   "name": "GAOFEN-1 03",
   "intl": "2018-031B",
   "group": "resource",
   "gcat": {
    "class": "C",
    "category": "IMG",
    "owner": "CNSAS",
    "state": "CN"
   },
   "omm": {
    "OBJECT_NAME": "GAOFEN-1 03",
    "OBJECT_ID": "2018-031B",
    "EPOCH": "2026-07-12T19:49:47.851392",
    "MEAN_MOTION": 14.76460668,
    "ECCENTRICITY": 0.0002598,
    "INCLINATION": 98.0505,
    "RA_OF_ASC_NODE": 256.1355,
    "ARG_OF_PERICENTER": 22.283,
    "MEAN_ANOMALY": 337.8492,
    "EPHEMERIS_TYPE": 0,
    "CLASSIFICATION_TYPE": "U",
    "NORAD_CAT_ID": 43260,
    "ELEMENT_SET_NO": 999,
    "REV_AT_EPOCH": 44647,
    "BSTAR": 0.000058301,
    "MEAN_MOTION_DOT": 0.00000354,
    "MEAN_MOTION_DDOT": 0
   }
  }
 ]
}
